NORAD_CAT_ID,OBJECT_NAME,OBJECT_TYPE,EPOCH,MEAN_MOTION,ECCENTRICITY,INCLINATION,RA_OF_ASC_NODE,ARG_OF_PERICENTER,MEAN_ANOMALY,BSTAR,MEAN_MOTION_DOT,MEAN_MOTION_DDOT,TLE_LINE0,TLE_LINE1,TLE_LINE2,SEMIMAJOR_AXIS,PERIOD,APOGEE,PERIGEE,DECAYED
52110.0,STARLINK-3687,PAYLOAD,2024-06-11 09:27:35,15.08855259,0.0001336,53.2177,55.5683,96.9252,263.1893,0.00041776,6.37e-05,0.0,0 STARLINK-3687,1 52110U 22029Y   24163.39415685  .00006370  00000-0  41776-3 0  9995,2 52110  53.2177  55.5683 0001336  96.9252 263.1893 15.08855259124720,6917.834,95.437,540.623,538.775,0.0
52110.0,STARLINK-3687,PAYLOAD,2024-06-11 23:46:04,15.08831562,0.0001373,53.2176,52.8887,100.3042,259.8105,-6.088e-05,-1.256e-05,0.0,0 STARLINK-3687,1 52110U 22029Y   24163.99032693 -.00001256  00000-0 -60880-4 0  9993,2 52110  53.2176  52.8887 0001373 100.3042 259.8105 15.08831562124812,6917.906,95.438,540.721,538.821,0.0
52110.0,STARLINK-3687,PAYLOAD,2024-06-12 09:18:22,15.08846841,0.0001427,53.2185,51.1085,106.8072,253.3077,0.00023092,3.39e-05,0.0,0 STARLINK-3687,1 52110U 22029Y   24164.38776213  .00003390  00000-0  23092-3 0  9992,2 52110  53.2185  51.1085 0001427 106.8072 253.3077 15.08846841124877,6917.859,95.437,540.712,538.737,0.0
52110.0,STARLINK-3687,PAYLOAD,2024-06-12 20:26:05,15.08837011,0.0002224,53.2175,49.0278,91.8335,268.2912,0.00010198,1.335e-05,0.0,0 STARLINK-3687,1 52110U 22029Y   24164.85145002  .00001335  00000-0  10198-3 0  9990,2 52110  53.2175  49.0278 0002224  91.8335 268.2912 15.08837011124947,6917.89,95.438,541.293,538.216,0.0
52110.0,STARLINK-3687,PAYLOAD,2024-06-12 22:01:28,15.08832132,0.0001652,53.2185,48.7337,107.6282,252.4891,-1.4787e-05,-5.23e-06,0.0,0 STARLINK-3687,1 52110U 22029Y   24164.91769011 -.00000523  00000-0 -14787-4 0  9998,2 52110  53.2185  48.7337 0001652 107.6282 252.4891 15.08832132124952,6917.904,95.438,540.912,538.627,0.0
52110.0,STARLINK-3687,PAYLOAD,2024-06-13 09:09:09,15.0884846,0.0001485,53.2183,46.6478,91.1031,269.0131,0.00030654,4.595e-05,0.0,0 STARLINK-3687,1 52110U 22029Y   24165.38136469  .00004595  00000-0  30654-3 0  9996,2 52110  53.2183  46.6478 0001485  91.1031 269.0131 15.08848460125027,6917.855,95.437,540.747,538.692,0.0
52110.0,STARLINK-3687,PAYLOAD,2024-06-13 21:52:15,15.08837121,0.0001154,53.2157,44.2666,84.9602,275.1522,9.5795e-05,1.237e-05,0.0,0 STARLINK-3687,1 52110U 22029Y   24165.91128964  .00001237  00000-0  95795-4 0  9994,2 52110  53.2157  44.2666 0001154  84.9602 275.1522 15.08837121125101,6917.889,95.438,540.553,538.956,0.0
52110.0,STARLINK-3687,PAYLOAD,2024-06-14 08:59:56,15.08854839,0.0001191,53.2172,42.1819,79.3177,280.7949,0.00025695,3.805e-05,0.0,0 STARLINK-3687,1 52110U 22029Y   24166.37495947  .00003805  00000-0  25695-3 0  9997,2 52110  53.2172  42.1819 0001191  79.3177 280.7949 15.08854839125178,6917.835,95.437,540.524,538.876,0.0
52110.0,STARLINK-3687,PAYLOAD,2024-06-14 21:43:02,15.088415,0.000121,53.217,39.8073,80.5702,279.5427,3.4879e-05,2.67e-06,0.0,0 STARLINK-3687,1 52110U 22029Y   24166.90488576  .00000267  00000-0  34879-4 0  9990,2 52110  53.2170  39.8073 0001210  80.5702 279.5427 15.08841500125258,6917.876,95.437,540.578,538.904,0.0
52110.0,STARLINK-3687,PAYLOAD,2024-06-15 08:50:43,15.08854487,0.0001369,53.2175,37.7253,74.4447,285.6696,0.0002588,3.835e-05,0.0,0 STARLINK-3687,1 52110U 22029Y   24167.36856059  .00003835  00000-0  25880-3 0  9991,2 52110  53.2175  37.7253 0001369  74.4447 285.6696 15.08854487125325,6917.836,95.437,540.648,538.754,0.0
52110.0,STARLINK-3687,PAYLOAD,2024-06-15 21:33:49,15.0884736,0.0001423,53.217,35.3427,95.2513,264.8641,0.00024517,3.617e-05,0.0,0 STARLINK-3687,1 52110U 22029Y   24167.89848429  .00003617  00000-0  24517-3 0  9995,2 52110  53.2170  35.3427 0001423  95.2513 264.8641 15.08847360125403,6917.858,95.437,540.707,538.738,0.0
52110.0,STARLINK-3687,PAYLOAD,2024-06-16 08:41:30,15.0885961,0.0001487,53.2174,33.2621,98.3393,261.7768,0.000781,0.0001217,0.0,0 STARLINK-3687,1 52110U 22029Y   24168.36216106  .00012170  00000-0  78100-3 0  9990,2 52110  53.2174  33.2621 0001487  98.3393 261.7768 15.08859610125474,6917.82,95.436,540.714,538.657,0.0
52110.0,STARLINK-3687,PAYLOAD,2024-06-16 21:24:36,15.08838911,0.0001296,53.2176,30.8855,97.4101,262.7039,0.00037652,5.709e-05,0.0,0 STARLINK-3687,1 52110U 22029Y   24168.89208639  .00005709  00000-0  37652-3 0  9997,2 52110  53.2176  30.8855 0001296  97.4101 262.7039 15.08838911125555,6917.884,95.438,540.645,538.852,0.0
52110.0,STARLINK-3687,PAYLOAD,2024-06-17 21:15:23,15.08841607,0.000131,53.2174,26.4268,94.7243,265.3899,0.00048573,7.451e-05,0.0,0 STARLINK-3687,1 52110U 22029Y   24169.88569100  .00007451  00000-0  48573-3 0  9990,2 52110  53.2174  26.4268 0001310  94.7243 265.3899 15.08841607125702,6917.875,95.437,540.647,538.834,0.0
52110.0,STARLINK-3687,PAYLOAD,2024-06-18 00:26:09,15.08845852,0.0001315,53.217,25.8313,95.0631,265.0511,0.00059326,9.168e-05,0.0,0 STARLINK-3687,1 52110U 22029Y   24170.01817033  .00009168  00000-0  59326-3 0  9993,2 52110  53.2170  25.8313 0001315  95.0631 265.0511 15.08845852125728,6917.863,95.437,540.637,538.818,0.0
52110.0,STARLINK-3687,PAYLOAD,2024-06-18 21:06:10,15.08843617,0.0001202,53.2162,21.9648,92.8331,267.2799,0.00020405,2.961e-05,0.0,0 STARLINK-3687,1 52110U 22029Y   24170.87928931  .00002961  00000-0  20405-3 0  9997,2 52110  53.2162  21.9648 0001202  92.8331 267.2799 15.08843617125857,6917.869,95.437,540.566,538.903,0.0
52110.0,STARLINK-3687,PAYLOAD,2024-06-19 14:35:25,15.08845157,0.0002271,53.2163,18.6924,77.8046,282.32,0.00015685,2.209e-05,0.0,0 STARLINK-3687,1 52110U 22029Y   24171.60792978  .00002209  00000-0  15685-3 0  9998,2 52110  53.2163  18.6924 0002271  77.8046 282.3200 15.08845157125969,6917.865,95.437,541.301,538.159,0.0
52110.0,STARLINK-3687,PAYLOAD,2024-06-19 20:56:57,15.08837596,0.0001457,53.2172,17.5041,87.0605,273.0554,2.1234e-06,-2.54e-06,0.0,0 STARLINK-3687,1 52110U 22029Y   24171.87289071 -.00000254  00000-0  21234-5 0  9990,2 52110  53.2172  17.5041 0001457  87.0605 273.0554 15.08837596126009,6917.888,95.438,540.761,538.745,0.0
52110.0,STARLINK-3687,PAYLOAD,2024-06-20 06:29:16,15.08843661,0.0001468,53.2175,15.7209,91.9271,268.1889,0.00011258,1.504e-05,0.0,0 STARLINK-3687,1 52110U 22029Y   24172.27032846  .00001504  00000-0  11258-3 0  9992,2 52110  53.2175  15.7209 0001468  91.9271 268.1889 15.08843661126065,6917.869,95.437,540.75,538.719,0.0
52110.0,STARLINK-3687,PAYLOAD,2024-06-20 22:23:08,15.08837051,0.0001556,53.2183,12.7515,107.3737,252.7425,5.3194e-05,5.59e-06,0.0,0 STARLINK-3687,1 52110U 22029Y   24172.93273420  .00000559  00000-0  53194-4 0  9995,2 52110  53.2183  12.7515 0001556 107.3737 252.7425 15.08837051126160,6917.889,95.438,540.831,538.678,0.0
52110.0,STARLINK-3687,PAYLOAD,2024-06-21 20:38:32,15.08838229,0.0001407,53.2176,8.5833,95.1816,264.9337,0.00011196,1.494e-05,0.0,0 STARLINK-3687,1 52110U 22029Y   24173.86009679  .00001494  00000-0  11196-3 0  9995,2 52110  53.2176   8.5833 0001407  95.1816 264.9337 15.08838229126306,6917.886,95.438,540.724,538.777,0.0
52110.0,STARLINK-3687,PAYLOAD,2024-06-22 20:29:19,15.08848303,0.00014,53.2174,4.1184,83.121,276.9941,0.00024802,3.662e-05,0.0,0 STARLINK-3687,1 52110U 22029Y   24174.85369380  .00003662  00000-0  24802-3 0  9990,2 52110  53.2174   4.1184 0001400  83.1210 276.9941 15.08848303126457,6917.855,95.437,540.689,538.752,0.0
52110.0,STARLINK-3687,PAYLOAD,2024-06-22 22:04:42,15.08848892,0.0001373,53.2173,3.8222,85.4484,274.6665,0.00025267,3.737e-05,0.0,0 STARLINK-3687,1 52110U 22029Y   24174.91993341  .00003737  00000-0  25267-3 0  9996,2 52110  53.2173   3.8222 0001373  85.4484 274.6665 15.08848892126464,6917.853,95.437,540.668,538.768,0.0
52110.0,STARLINK-3687,PAYLOAD,2024-06-23 18:44:43,15.08844872,0.0001483,53.2178,359.9535,78.0978,282.018,0.0001577,2.223e-05,0.0,0 STARLINK-3687,1 52110U 22029Y   24175.78105476  .00002223  00000-0  15770-3 0  9993,2 52110  53.2178 359.9535 0001483  78.0978 282.0180 15.08844872126592,6917.865,95.437,540.756,538.705,0.0
52110.0,STARLINK-3687,PAYLOAD,2024-06-23 21:55:29,15.08844286,0.0001429,53.2175,359.3608,81.8901,278.2253,0.00013914,1.927e-05,0.0,0 STARLINK-3687,1 52110U 22029Y   24175.91353468  .00001927  00000-0  13914-3 0  9992,2 52110  53.2175 359.3608 0001429  81.8901 278.2253 15.08844286126612,6917.867,95.437,540.721,538.744,0.0
52110.0,STARLINK-3687,PAYLOAD,2024-06-24 12:13:57,15.08842845,0.0001398,53.217,356.6842,86.6322,273.483,4.7637e-05,4.7e-06,0.0,0 STARLINK-3687,1 52110U 22029Y   24176.50969444  .00000470  00000-0  47637-4 0  9997,2 52110  53.2170 356.6842 0001398  86.6322 273.4830 15.08842845126709,6917.872,95.437,540.704,538.77,0.0
52110.0,STARLINK-3687,PAYLOAD,2024-06-24 18:35:30,15.08841436,0.0001328,53.2177,355.4942,91.7024,268.412,7.8344e-06,-1.63e-06,0.0,0 STARLINK-3687,1 52110U 22029Y   24176.77465570 -.00000163  00000-0  78344-5 0  9997,2 52110  53.2177 355.4942 0001328  91.7024 268.4120 15.08841436126748,6917.876,95.437,540.66,538.822,0.0
52110.0,STARLINK-3687,PAYLOAD,2024-06-25 18:26:17,15.08840776,0.0001362,53.2178,351.0336,93.3271,266.7877,7.8352e-05,9.59e-06,0.0,0 STARLINK-3687,1 52110U 22029Y   24177.76825390  .00000959  00000-0  78352-4 0  9997,2 52110  53.2178 351.0336 0001362  93.3271 266.7877 15.08840776126890,6917.878,95.438,540.685,538.801,0.0
52110.0,STARLINK-3687,PAYLOAD,2024-06-26 03:58:35,15.08852328,0.0001375,53.2185,349.2518,95.4151,264.6998,0.00015018,2.104e-05,0.0,0 STARLINK-3687,1 52110U 22029Y   24178.16568392  .00002104  00000-0  15018-3 0  9991,2 52110  53.2185 349.2518 0001375  95.4151 264.6998 15.08852328126957,6917.843,95.437,540.659,538.757,0.0
52110.0,STARLINK-3687,PAYLOAD,2024-06-27 03:49:23,15.08839612,0.0001445,53.219,344.8026,112.3485,247.766,6.6061e-05,7.64e-06,0.0,0 STARLINK-3687,1 52110U 22029Y   24179.15929597  .00000764  00000-0  66061-4 0  9994,2 52110  53.2190 344.8026 0001445 112.3485 247.7660 15.08839612127102,6917.882,95.438,540.746,538.747,0.0
